NORAD_CAT_ID,OBJECT_NAME,OBJECT_TYPE,EPOCH,MEAN_MOTION,ECCENTRICITY,INCLINATION,RA_OF_ASC_NODE,ARG_OF_PERICENTER,MEAN_ANOMALY,BSTAR,MEAN_MOTION_DOT,MEAN_MOTION_DDOT,TLE_LINE0,TLE_LINE1,TLE_LINE2,SEMIMAJOR_AXIS,PERIOD,APOGEE,PERIGEE,DECAYED
53594.0,STARLINK-4681,PAYLOAD,2023-07-20 09:59:14,15.0884197,9.9e-05,53.216,248.3942,97.1233,262.9872,4.9974e-05,5.08e-06,0.0,0 STARLINK-4681,1 53594U 22104G   23201.41613901  .00000508  00000-0  49974-4 0  9998,2 53594  53.2160 248.3942 0000990  97.1233 262.9872 15.08841970 49507,6917.874,95.437,540.424,539.054,0.0
53594.0,STARLINK-4681,PAYLOAD,2023-07-21 13:00:47,15.08838465,0.0001043,53.2161,243.3393,95.6765,264.4347,8.2424e-05,1.024e-05,0.0,0 STARLINK-4681,1 53594U 22104G   23202.54222089  .00001024  00000-0  82424-4 0  9997,2 53594  53.2161 243.3393 0001043  95.6765 264.4347 15.08838465 49673,6917.885,95.438,540.472,539.029,0.0
53594.0,STARLINK-4681,PAYLOAD,2023-07-24 03:00:50,15.08838044,0.0001093,53.2158,231.7417,95.5679,264.5438,6.3597e-05,7.24e-06,0.0,0 STARLINK-4681,1 53594U 22104G   23205.12558578  .00000724  00000-0  63597-4 0  9995,2 53594  53.2158 231.7417 0001093  95.5679 264.5438 15.08838044 51224,6917.886,95.438,540.507,538.995,0.0
53594.0,STARLINK-4681,PAYLOAD,2023-07-25 10:48:33,15.088384,0.0001003,53.215,225.794,89.2521,270.8586,2.1124e-05,4.8e-07,0.0,0 STARLINK-4681,1 53594U 22104G   23206.45038903  .00000048  00000-0  21124-4 0  9996,2 53594  53.2150 225.7940 0001003  89.2521 270.8586 15.08838400 51429,6917.885,95.438,540.444,539.056,0.0
53594.0,STARLINK-4681,PAYLOAD,2023-07-26 01:07:01,15.08839412,9.45e-05,53.2141,223.1171,68.3631,291.7462,6.8453e-05,8.02e-06,0.0,0 STARLINK-4681,1 53594U 22104G   23207.04654752  .00000802  00000-0  68453-4 0  9992,2 53594  53.2141 223.1171 0000945  68.3631 291.7462 15.08839412 51510,6917.882,95.438,540.401,539.093,0.0
53594.0,STARLINK-4681,PAYLOAD,2023-07-26 05:53:10,15.0884236,9.99e-05,53.2147,222.2255,73.4603,286.6499,9.0268e-05,1.149e-05,0.0,0 STARLINK-4681,1 53594U 22104G   23207.24526522  .00001149  00000-0  90268-4 0  9991,2 53594  53.2147 222.2255 0000999  73.4603 286.6499 15.08842360 50387,6917.873,95.437,540.429,539.047,0.0
53594.0,STARLINK-4681,PAYLOAD,2023-07-26 07:28:34,15.08842903,0.0001009,53.2147,221.9281,72.2961,287.8141,9.4065e-05,1.21e-05,0.0,0 STARLINK-4681,1 53594U 22104G   23207.31150478  .00001210  00000-0  94065-4 0  9990,2 53594  53.2147 221.9281 0001009  72.2961 287.8141 15.08842903 51559,6917.872,95.437,540.435,539.039,0.0
53594.0,STARLINK-4681,PAYLOAD,2023-07-27 07:19:20,15.08844283,0.0001025,53.2151,217.4676,80.5172,279.5936,9.6205e-05,1.244e-05,0.0,0 STARLINK-4681,1 53594U 22104G   23208.30510192  .00001244  00000-0  96205-4 0  9998,2 53594  53.2151 217.4676 0001025  80.5172 279.5936 15.08844283 50547,6917.867,95.437,540.441,539.023,0.0
53594.0,STARLINK-4681,PAYLOAD,2023-07-28 00:48:35,15.08838894,7.91e-05,53.2149,214.1962,78.902,281.2061,-1.3963e-05,-5.1e-06,0.0,0 STARLINK-4681,1 53594U 22104G   23209.03374801 -.00000510  00000-0 -13963-4 0  9991,2 53594  53.2149 214.1962 0000791  78.9020 281.2061 15.08838894 50650,6917.884,95.438,540.296,539.202,0.0
53594.0,STARLINK-4681,PAYLOAD,2023-07-28 10:20:54,15.08835274,0.0001054,53.2153,212.4125,84.1299,275.9813,-3.6083e-05,-8.62e-06,0.0,0 STARLINK-4681,1 53594U 22104G   23209.43119148 -.00000862  00000-0 -36083-4 0  9994,2 53594  53.2153 212.4125 0001054  84.1299 275.9813 15.08835274 51876,6917.895,95.438,540.489,539.031,0.0
53594.0,STARLINK-4681,PAYLOAD,2023-07-29 07:00:55,15.08840031,0.0001102,53.2156,208.5472,84.9001,275.2117,2.8674e-05,1.69e-06,0.0,0 STARLINK-4681,1 53594U 22104G   23210.29230748  .00000169  00000-0  28674-4 0  9995,2 53594  53.2156 208.5472 0001102  84.9001 275.2117 15.08840031 50846,6917.88,95.438,540.508,538.983,0.0
53594.0,STARLINK-4681,PAYLOAD,2023-07-30 00:30:10,15.08831593,0.0001173,53.2162,205.276,93.0037,267.1089,6.3397e-05,7.21e-06,0.0,0 STARLINK-4681,1 53594U 22104G   23211.02095346  .00000721  00000-0  63397-4 0  9995,2 53594  53.2162 205.2760 0001173  93.0037 267.1089 15.08831593 50958,6917.906,95.438,540.583,538.96,0.0
53594.0,STARLINK-4681,PAYLOAD,2023-07-31 06:42:29,15.08841319,0.0001223,53.2164,199.6255,94.1489,265.9643,6.6245e-05,7.67e-06,0.0,0 STARLINK-4681,1 53594U 22104G   23212.27951071  .00000767  00000-0  66245-4 0  9994,2 53594  53.2164 199.6255 0001223  94.1489 265.9643 15.08841319 51145,6917.876,95.437,540.587,538.895,0.0
53594.0,STARLINK-4681,PAYLOAD,2023-08-01 04:57:53,15.0883781,0.0001223,53.2164,195.4618,93.3639,266.7493,3.9829e-05,3.46e-06,0.0,0 STARLINK-4681,1 53594U 22104G   23213.20687482  .00000346  00000-0  39829-4 0  9991,2 53594  53.2164 195.4618 0001223  93.3639 266.7493 15.08837810 51288,6917.887,95.438,540.598,538.906,0.0
53594.0,STARLINK-4681,PAYLOAD,2023-08-02 07:59:26,15.08844758,0.0001246,53.2165,190.4072,91.2942,268.8193,5.4494e-05,5.8e-06,0.0,0 STARLINK-4681,1 53594U 22104G   23214.33295018  .00000580  00000-0  54494-4 0  9991,2 53594  53.2165 190.4072 0001246  91.2942 268.8193 15.08844758 51455,6917.866,95.437,540.593,538.869,0.0
53594.0,STARLINK-4681,PAYLOAD,2023-08-04 02:54:52,15.0883282,0.0001324,53.2162,182.3778,93.6192,266.4952,-4.6095e-05,-1.021e-05,0.0,0 STARLINK-4681,1 53594U 22104G   23216.12144281 -.00001021  00000-0 -46095-4 0  9996,2 53594  53.2162 182.3778 0001324  93.6192 266.4952 15.08832820 51729,6917.902,95.438,540.683,538.851,0.0
53594.0,STARLINK-4681,PAYLOAD,2023-08-05 02:45:39,15.08841891,0.0001404,53.2169,177.9175,90.9326,269.1827,6.4508e-05,7.39e-06,0.0,0 STARLINK-4681,1 53594U 22104G   23217.11503561  .00000739  00000-0  64508-4 0  9998,2 53594  53.2169 177.9175 0001404  90.9326 269.1827 15.08841891 51870,6917.875,95.437,540.711,538.768,0.0
53594.0,STARLINK-4681,PAYLOAD,2023-08-05 07:31:48,15.0884759,0.0001435,53.2173,177.0252,89.4841,270.6315,0.00011459,1.537e-05,0.0,0 STARLINK-4681,1 53594U 22104G   23217.31375038  .00001537  00000-0  11459-3 0  9999,2 53594  53.2173 177.0252 0001435  89.4841 270.6315 15.08847590 51906,6917.857,95.437,540.715,538.729,0.0
53594.0,STARLINK-4681,PAYLOAD,2023-08-06 04:11:48,15.08843524,0.0001297,53.217,173.1596,94.508,265.6061,0.00012555,1.711e-05,0.0,0 STARLINK-4681,1 53594U 22104G   23218.17487187  .00001711  00000-0  12555-3 0  9995,2 53594  53.2170 173.1596 0001297  94.5080 265.6061 15.08843524 52039,6917.87,95.437,540.632,538.837,0.0
53594.0,STARLINK-4681,PAYLOAD,2023-08-06 13:44:08,15.08838151,0.0001373,53.2171,171.3783,78.5878,281.5269,3.6297e-05,2.9e-06,0.0,0 STARLINK-4681,1 53594U 22104G   23218.57231907  .00000290  00000-0  36297-4 0  9997,2 53594  53.2171 171.3783 0001373  78.5878 281.5269 15.08838151 52093,6917.886,95.438,540.701,538.801,0.0
53594.0,STARLINK-4681,PAYLOAD,2023-08-07 04:02:38,15.08826412,0.0001446,53.2182,168.7039,98.3741,261.7415,-0.00015653,-2.777e-05,0.0,0 STARLINK-4681,1 53594U 22104G   23219.16849667 -.00002777  00000-0 -15653-3 0  9997,2 53594  53.2182 168.7039 0001446  98.3741 261.7415 15.08826412 52189,6917.922,95.438,540.787,538.787,0.0
53594.0,STARLINK-4681,PAYLOAD,2023-08-07 07:13:24,15.08831305,0.0001226,53.2168,168.1056,83.5616,276.5515,-0.00014729,-2.631e-05,0.0,0 STARLINK-4681,1 53594U 22104G   23219.30097354 -.00002631  00000-0 -14729-3 0  9993,2 53594  53.2168 168.1056 0001226  83.5616 276.5515 15.08831305 52204,6917.907,95.438,540.62,538.924,0.0
53594.0,STARLINK-4681,PAYLOAD,2023-08-08 05:28:46,15.08853329,0.0001237,53.2172,163.9431,88.2935,271.8199,6.6559e-05,7.72e-06,0.0,0 STARLINK-4681,1 53594U 22104G   23220.22831557  .00000772  00000-0  66559-4 0  9998,2 53594  53.2172 163.9431 0001237  88.2935 271.8199 15.08853329 52348,6917.84,95.437,540.56,538.849,0.0
53594.0,STARLINK-4681,PAYLOAD,2023-08-08 13:25:42,15.08843549,0.000147,53.2176,162.4559,83.7505,276.3655,-7.2294e-06,-4.03e-06,0.0,0 STARLINK-4681,1 53594U 22104G   23220.55952360 -.00000403  00000-0 -72294-5 0  9997,2 53594  53.2176 162.4559 0001470  83.7505 276.3655 15.08843549 52394,6917.87,95.437,540.751,538.718,0.0
53594.0,STARLINK-4681,PAYLOAD,2023-08-08 19:47:15,15.08830142,0.0001411,53.2181,161.2688,82.4622,277.6531,0.00018937,2.726e-05,0.0,0 STARLINK-4681,1 53594U 22104G   23220.82448736  .00002726  00000-0  18937-3 0  9994,2 53594  53.2181 161.2688 0001411  82.4622 277.6531 15.08830142 52438,6917.911,95.438,540.752,538.799,0.0
53594.0,STARLINK-4681,PAYLOAD,2023-08-09 05:19:34,15.08837852,0.0001366,53.2166,159.4834,79.4988,280.6158,0.00018585,2.671e-05,0.0,0 STARLINK-4681,1 53594U 22104G   23221.22192322  .00002671  00000-0  18585-3 0  9994,2 53594  53.2166 159.4834 0001366  79.4988 280.6158 15.08837852 52493,6917.887,95.438,540.697,538.807,0.0
53594.0,STARLINK-4681,PAYLOAD,2023-08-10 13:07:17,15.08842371,0.0001472,53.216,153.5363,79.0765,281.0393,-3.0131e-05,-7.68e-06,0.0,0 STARLINK-4681,1 53594U 22104G   23222.54672500 -.00000768  00000-0 -30131-4 0  9990,2 53594  53.2160 153.5363 0001472  79.0765 281.0393 15.08842371 52696,6917.873,95.437,540.756,538.72,0.0
53594.0,STARLINK-4681,PAYLOAD,2023-08-11 05:01:07,15.08846094,0.000132,53.2171,150.5611,90.0145,270.0998,4.1613e-06,-2.22e-06,0.0,0 STARLINK-4681,1 53594U 22104G   23223.20911874 -.00000222  00000-0  41613-5 0  9996,2 53594  53.2171 150.5611 0001320  90.0145 270.0998 15.08846094 52794,6917.862,95.437,540.64,538.814,0.0
53594.0,STARLINK-4681,PAYLOAD,2023-08-12 01:41:09,15.08836211,0.0001151,53.218,146.6953,93.864,266.2484,2.8538e-05,1.66e-06,0.0,0 STARLINK-4681,1 53594U 22104G   23224.07024382  .00000166  00000-0  28538-4 0  9997,2 53594  53.2180 146.6953 0001151  93.8640 266.2484 15.08836211 52924,6917.892,95.438,540.553,538.961,0.0
53594.0,STARLINK-4681,PAYLOAD,2023-08-13 04:42:43,15.0883208,0.0001376,53.2172,141.6407,83.5239,276.591,9.5927e-06,-1.35e-06,0.0,0 STARLINK-4681,1 53594U 22104G   23225.19633134 -.00000135  00000-0  95927-5 0  9996,2 53594  53.2172 141.6407 0001376  83.5239 276.5910 15.08832080 53090,6917.905,95.438,540.722,538.818,0.0
